[
    {
        "Altitude(m)": 567684.4168410947,
        "Argument of Periapsis(deg)": 0.013245982221427002,
        "Eccentricity": 0.0,
        "Inclination(deg)": 53.0,
        "Latitude(deg)": -42.81842334646376,
        "Longitude(deg)": -165.55879984664656,
        "Mean Anomaly(deg)": -57.99861426484486,
        "RAAN(deg)": 339.9802867370561,
        "Satellite Name": "Starlink Shell 1 1513",
        "Satellite Number": 1513,
        "Semi-Major Axis(m)": 6931778.249405717,
        "Time(s)": 380
    },
    {
        "Altitude(m)": 567534.8577947881,
        "Argument of Periapsis(deg)": 0.013594560700938237,
        "Eccentricity": 0.0,
        "Inclination(deg)": 53.0,
        "Latitude(deg)": -42.45636153624986,
        "Longitude(deg)": -164.90831406102373,
        "Mean Anomaly(deg)": -57.37178306128816,
        "RAAN(deg)": 339.97976796697856,
        "Satellite Name": "Starlink Shell 1 1513",
        "Satellite Number": 1513,
        "Semi-Major Axis(m)": 6931778.249405717,
        "Time(s)": 390
    },
    {
        "Altitude(m)": 567383.5228178229,
        "Argument of Periapsis(deg)": 0.013943139180449475,
        "Eccentricity": 0.0,
        "Inclination(deg)": 53.0,
        "Latitude(deg)": -42.09014248888038,
        "Longitude(deg)": -164.26577627008754,
        "Mean Anomaly(deg)": -56.744951857731415,
        "RAAN(deg)": 339.9792491969011,
        "Satellite Name": "Starlink Shell 1 1513",
        "Satellite Number": 1513,
        "Semi-Major Axis(m)": 6931778.249405717,
        "Time(s)": 400
    },
    {
        "Altitude(m)": 567230.4711658977,
        "Argument of Periapsis(deg)": 0.014291717659960712,
        "Eccentricity": 0.0,
        "Inclination(deg)": 53.0,
        "Latitude(deg)": -41.71986438813486,
        "Longitude(deg)": -163.6310815318851,
        "Mean Anomaly(deg)": -56.118120654174675,
        "RAAN(deg)": 339.9787304268237,
        "Satellite Name": "Starlink Shell 1 1513",
        "Satellite Number": 1513,
        "Semi-Major Axis(m)": 6931778.249405717,
        "Time(s)": 410
    },
    {
        "Altitude(m)": 567075.7627131997,
        "Argument of Periapsis(deg)": 0.014640296139471948,
        "Eccentricity": 0.0,
        "Inclination(deg)": 53.0,
        "Latitude(deg)": -41.3456235929809,
        "Longitude(deg)": -163.00412273537756,
        "Mean Anomaly(deg)": -55.49128945061803,
        "RAAN(deg)": 339.97821165674617,
        "Satellite Name": "Starlink Shell 1 1513",
        "Satellite Number": 1513,
        "Semi-Major Axis(m)": 6931778.249405717,
        "Time(s)": 420
    },
    {
        "Altitude(m)": 566919.457925921,
        "Argument of Periapsis(deg)": 0.014988874618983185,
        "Eccentricity": 0.0,
        "Inclination(deg)": 53.0,
        "Latitude(deg)": -40.96751463119928,
        "Longitude(deg)": -162.38479041712827,
        "Mean Anomaly(deg)": -54.86445824706123,
        "RAAN(deg)": 339.9776928866687,
        "Satellite Name": "Starlink Shell 1 1513",
        "Satellite Number": 1513,
        "Semi-Major Axis(m)": 6931778.249405717,
        "Time(s)": 430
    },
    {
        "Altitude(m)": 566761.6178355315,
        "Argument of Periapsis(deg)": 0.015337453098494424,
        "Eccentricity": 0.0,
        "Inclination(deg)": 53.0,
        "Latitude(deg)": -40.585630197409614,
        "Longitude(deg)": -161.77297256020955,
        "Mean Anomaly(deg)": -54.23762704350448,
        "RAAN(deg)": 339.97717411659124,
        "Satellite Name": "Starlink Shell 1 1513",
        "Satellite Number": 1513,
        "Semi-Major Axis(m)": 6931778.249405717,
        "Time(s)": 440
    },
    {
        "Altitude(m)": 566602.3040117729,
        "Argument of Periapsis(deg)": 0.01568603157800566,
        "Eccentricity": 0.0,
        "Inclination(deg)": 53.0,
        "Latitude(deg)": -40.2000611551431,
        "Longitude(deg)": -161.1685558885333,
        "Mean Anomaly(deg)": -53.61079583994784,
        "RAAN(deg)": 339.9766553465138,
        "Satellite Name": "Starlink Shell 1 1513",
        "Satellite Number": 1513,
        "Semi-Major Axis(m)": 6931778.249405717,
        "Time(s)": 450
    },
    {
        "Altitude(m)": 566441.57853541,
        "Argument of Periapsis(deg)": 0.0160346100575169,
        "Eccentricity": 0.0,
        "Inclination(deg)": 53.0,
        "Latitude(deg)": -39.81089654263458,
        "Longitude(deg)": -160.57142563125683,
        "Mean Anomaly(deg)": -52.98396463639114,
        "RAAN(deg)": 339.97613657643626,
        "Satellite Name": "Starlink Shell 1 1513",
        "Satellite Number": 1513,
        "Semi-Major Axis(m)": 6931778.249405717,
        "Time(s)": 460
    },
    {
        "Altitude(m)": 566279.5039707007,
        "Argument of Periapsis(deg)": 0.016383188537028134,
        "Eccentricity": 0.0,
        "Inclination(deg)": 53.0,
        "Latitude(deg)": -39.418223582009354,
        "Longitude(deg)": -159.98146527058583,
        "Mean Anomaly(deg)": -52.357133432834345,
        "RAAN(deg)": 339.9756178063588,
        "Satellite Name": "Starlink Shell 1 1513",
        "Satellite Number": 1513,
        "Semi-Major Axis(m)": 6931778.249405717,
        "Time(s)": 470
    },
    {
        "Altitude(m)": 566116.1433376933,
        "Argument of Periapsis(deg)": 0.01673176701653937,
        "Eccentricity": 0.0,
        "Inclination(deg)": 53.0,
        "Latitude(deg)": -39.02212769155972,
        "Longitude(deg)": -159.3985577863426,
        "Mean Anomaly(deg)": -51.73030222927765,
        "RAAN(deg)": 339.97509903628134,
        "Satellite Name": "Starlink Shell 1 1513",
        "Satellite Number": 1513,
        "Semi-Major Axis(m)": 6931778.249405717,
        "Time(s)": 480
    },
    {
        "Altitude(m)": 565951.560084237,
        "Argument of Periapsis(deg)": 0.017080345496050607,
        "Eccentricity": 0.0,
        "Inclination(deg)": 53.0,
        "Latitude(deg)": -38.622692500825096,
        "Longitude(deg)": -158.8225853720761,
        "Mean Anomaly(deg)": -51.10347102572095,
        "RAAN(deg)": 339.9745802662038,
        "Satellite Name": "Starlink Shell 1 1513",
        "Satellite Number": 1513,
        "Semi-Major Axis(m)": 6931778.249405717,
        "Time(s)": 490
    },
    {
        "Altitude(m)": 565785.8180578478,
        "Argument of Periapsis(deg)": 0.017428923975561842,
        "Eccentricity": 0.0,
        "Inclination(deg)": 53.0,
        "Latitude(deg)": -38.21999986820231,
        "Longitude(deg)": -158.2534291361476,
        "Mean Anomaly(deg)": -50.476639822164266,
        "RAAN(deg)": 339.9740614961264,
        "Satellite Name": "Starlink Shell 1 1513",
        "Satellite Number": 1513,
        "Semi-Major Axis(m)": 6931778.249405717,
        "Time(s)": 500
    },
    {
        "Altitude(m)": 565618.9814773275,
        "Argument of Periapsis(deg)": 0.01777750245507308,
        "Eccentricity": 0.0,
        "Inclination(deg)": 53.0,
        "Latitude(deg)": -37.81412990082411,
        "Longitude(deg)": -157.69097030123686,
        "Mean Anomaly(deg)": -49.84980861860757,
        "RAAN(deg)": 339.9735427260489,
        "Satellite Name": "Starlink Shell 1 1513",
        "Satellite Number": 1513,
        "Semi-Major Axis(m)": 6931778.249405717,
        "Time(s)": 510
    },
    {
        "Altitude(m)": 565451.1149042393,
        "Argument of Periapsis(deg)": 0.018126080934584315,
        "Eccentricity": 0.0,
        "Inclination(deg)": 53.0,
        "Latitude(deg)": -37.40516097646917,
        "Longitude(deg)": -157.13508987711023,
        "Mean Anomaly(deg)": -49.22297741505082,
        "RAAN(deg)": 339.9730239559714,
        "Satellite Name": "Starlink Shell 1 1513",
        "Satellite Number": 1513,
        "Semi-Major Axis(m)": 6931778.249405717,
        "Time(s)": 520
    },
    {
        "Altitude(m)": 565282.2832141897,
        "Argument of Periapsis(deg)": 0.018474659414095554,
        "Eccentricity": 0.0,
        "Inclination(deg)": 53.0,
        "Latitude(deg)": -36.99316976727401,
        "Longitude(deg)": -156.5856683201237,
        "Mean Anomaly(deg)": -48.59614621149417,
        "RAAN(deg)": 339.972505185894,
        "Satellite Name": "Starlink Shell 1 1513",
        "Satellite Number": 1513,
        "Semi-Major Axis(m)": 6931778.249405717,
        "Time(s)": 530
    },
    {
        "Altitude(m)": 565112.5515679684,
        "Argument of Periapsis(deg)": 0.018823237893606792,
        "Eccentricity": 0.0,
        "Inclination(deg)": 53.0,
        "Latitude(deg)": -36.57823126503008,
        "Longitude(deg)": -156.04258669293014,
        "Mean Anomaly(deg)": -47.96931500793737,
        "RAAN(deg)": 339.9719864158165,
        "Satellite Name": "Starlink Shell 1 1513",
        "Satellite Number": 1513,
        "Semi-Major Axis(m)": 6931778.249405717,
        "Time(s)": 540
    },
    {
        "Altitude(m)": 564941.9853825291,
        "Argument of Periapsis(deg)": 0.019171816373118027,
        "Eccentricity": 0.0,
        "Inclination(deg)": 53.0,
        "Latitude(deg)": -36.1604188078752,
        "Longitude(deg)": -155.50572629924784,
        "Mean Anomaly(deg)": -47.34248380438062,
        "RAAN(deg)": 339.97146764573904,
        "Satellite Name": "Starlink Shell 1 1513",
        "Satellite Number": 1513,
        "Semi-Major Axis(m)": 6931778.249405717,
        "Time(s)": 550
    },
    {
        "Altitude(m)": 564770.6503018566,
        "Argument of Periapsis(deg)": 0.019520394852629266,
        "Eccentricity": 0.0,
        "Inclination(deg)": 53.0,
        "Latitude(deg)": -35.739804108189126,
        "Longitude(deg)": -154.97496830715326,
        "Mean Anomaly(deg)": -46.71565260082399,
        "RAAN(deg)": 339.9709488756616,
        "Satellite Name": "Starlink Shell 1 1513",
        "Satellite Number": 1513,
        "Semi-Major Axis(m)": 6931778.249405717,
        "Time(s)": 560
    }
]